#dP2021  2  6 18  0  0.00000000      96 __u+U ITR00 EXT  IAC
## 2143 583200.00000000   900.00000000 59251 0.7500000000000
+  114   C07C08C09C10C11C12C13C14C16C19C20C21C22C23C24C25C26
+        C27C28C29C30C32C33C34C35C36C37C38C39C40C41C42C43C44
+        C45C46E01E02E03E04E05E07E08E09E11E12E13E14E15E18E19
+        E21E24E25E26E27E30E31E33E36G01G02G03G04G05G06G07G09
+        G10G11G12G13G14G15G16G17G18G19G20G21G22G23G24G25G26
+        G27G28G29G30G31G32J01J02J03R01R02R03R04R05R07R08R11
+        R12R13R14R15R16R17R18R19R20R21R22R24  0  0  0  0  0
++        10  9 10  9 10  9  7 12  9  9  8  8  9 11  8  8  8
++         7  9  9  8 10  8 10  7  8  9  9  7 10  8  8 10  8
++         8 11  9  8  8  8  8  9  7  7  6  8  7  8  8  6  8
++         8  7  6  8  8  8  9  7  8  8  8  7  8  8  8  7  7
++         7  7  7  7  7  7  7  6  6  7  8  7  7  8  6  6  8
++         6  8  9  7  8  7 11 11  8  9 10  9  8  9  9  9  9
++         6  8  8  9  8  8  8  8  8  8  9  8  0  0  0  0  0
%c M  cc GPS ccc cccc cccc cccc cccc ccccc ccccc ccccc ccccc
%c cc cc ccc ccc cccc cccc cccc cccc ccccc ccccc ccccc ccccc
%f  0.0000000  0.000000000  0.00000000000  0.000000000000000
%f  0.0000000  0.000000000  0.00000000000  0.000000000000000
%i    0    0    0    0      0      0      0      0         0
%i    0    0    0    0      0      0      0      0         0
/* IAC                                ULTRA-RAPID PREDICTION
/* S/V CLOCKS ARE ALIGNED TO GNSS TIME                      
/* G:C1WC2W R:C1PC2P E:C1XC5X C:C2IC6I J:C1CC2S             
/* PCV:IGS14_2134 OL/AL:FES2004  NONE     YN ORB:CoN CLK:CoN
*  2021 02 07 11  0  0.00000000
PC07 -20135.504637  24862.158723  27473.295791   -302.778175
PC08 -19635.651335  37518.647118   1400.487963   -918.420059
PC09   6009.386798  37153.053214 -18284.702236    750.046007
PC10  -5620.872598  26831.824409  32172.221889    -90.554396
PC11  11514.407048 -11138.982442 -22776.049239   -939.633906
PC12  17817.205276   8594.034810 -19649.161334    781.549740
PC13  -9280.756437  39117.142401 -13006.310875    131.265264
PC14  22235.102461  -8157.967507  14823.843717     80.025199
PC16  -3910.290247  30747.044402 -28417.982269   -686.824763
PC19 -13601.901749  12978.947455 -20593.615167    719.162686
PC20 -26577.744852   2897.715551  -7940.536908   -913.360087
PC21  24273.543138   9426.659231 -10040.261846   -827.079371
PC22   7657.894587  15846.526383 -21658.943059   -870.989734
PC23   1184.845413 -22100.873524 -16992.953901   -876.766065
PC24  21003.420466  -9943.935852  15414.502951   -755.593889
PC25  14909.687895 -23512.002975  -1711.343644   -924.917602
PC26  14543.222009   7366.893386  22637.014615    951.926764
PC27 -17287.188273 -17674.888668  12948.341289    479.347796
PC28  -8060.555012 -26366.757398  -4294.596348   -112.397985
PC29  -5132.362991  19811.516439  18965.348937    349.153047
PC30 -16507.578290   1454.817843  22455.673640    441.642735
PC32 -24307.606691  -9285.279991  10091.909274   -891.295967
PC33  13635.818111 -13058.044920  20559.869024   -954.588718
PC34  16276.033943  -2222.633994 -22559.322750   -745.468356
PC35   8741.753454  26082.416457   4575.592178   -429.237659
PC36 -15647.682279  23069.406089   1408.429164   -760.463511
PC37 -13860.253187  -8447.351860 -22688.605488   -863.313920
PC38 -17791.201642  38289.937153   -772.882348    128.603212
PC39  -1139.603759  31371.439426 -28084.847644     28.224381
PC40 -12716.618935  21450.190785  33987.916159    129.132112
PC41  -7378.510051 -15912.218782  21754.426347   -930.697649
PC42  26812.275277  -2535.073039   7371.397909   -851.093549
PC43   5646.788394 -19517.795433 -19142.045335   -587.049097
PC44  17887.329205  17177.128976 -12763.043492     26.431854
PC45  -1176.141091  22044.736545  17085.099991    355.834914
PC46 -20996.784812  10869.090841 -14856.348758    416.421979
PE01  27039.409485  -6036.039590  10401.623191  -1041.087597
PE02 -27078.258886   6131.886331 -10302.433686    196.675968
PE03 -25643.983320  -4598.375970 -14045.644045   -395.960518
PE04  13410.379375 -11412.105448  23793.731745   -704.855894
PE05 -23012.469642 -18160.599373   4100.706162   -306.527792
PE07   6983.429601  20989.791129 -19669.447174   -497.749065
PE08 -12989.059347  11585.497693 -23943.393916   6050.537032
PE09  -7293.858444 -20873.832680  19672.867526   5773.368450
PE11   -275.341203 -29535.447323   2082.738498   6355.912664
PE12  11530.254600 -21822.815893 -16345.504757   5368.067743
PE13    100.363513  29549.035118  -1664.331724    411.656245
PE14   7057.636074 -20283.679682 -22803.365701  -1321.628223
PE15 -11399.748126  21868.452333  16379.829506    830.491661
PE18   6223.110635  22103.547282  11783.315203  -1444.674196
PE19  26135.961764   6542.046093  12253.905233    197.813403
PE21  16628.483953   8715.204055  22878.517896   -647.131895
PE24   4482.108705 -19100.782724 -22167.831381   -730.873943
PE25 -16493.423814  -8830.420498 -22938.825591   -525.936218
PE26  11861.722566  19276.720748 -19065.037166   2175.879708
PE27  -3770.502279  18936.967386  22441.162046     34.910657
PE30 -22409.456457  17583.681431   8083.090762   3200.508363
PE31  21808.603173 -17956.095798  -8816.767396   -478.066096
PE33  16166.812073  -1353.500810 -24745.760203   -465.493761
PE36 -11530.949776 -19839.341951  18713.296232    443.851316
PG01 -13733.392102  18620.302844  12487.227693    765.975551
PG02  14313.045228   4287.579408 -21300.476734   -574.341486
PG03 -20494.043705  13109.495275 -10612.386787    -76.630292
PG04 -12121.291682   9294.572079 -21725.503009   -178.525367
PG05  25515.643950  -2337.278877  -7503.057932    -33.053155
PG06   7536.914957  18068.417066 -17860.522727     -3.457519
PG07  -5896.596162  25592.724443   1516.535543     50.155294
PG09   -689.794560  18316.595878 -19274.806264   -320.596903
PG10  -7598.529138 -13427.618366  21752.402829    -56.280736
PG11 -12857.586778  11801.450665  19660.152815    -31.360407
PG12  23563.102835  -9732.911572  -7399.562961      2.226680
PG13  19942.829370   8700.204807  15180.067220     94.489347
PG14   5053.553371  14470.686236  21682.843164     94.924832
PG15  17222.005979  -4844.125613  19376.729989   -171.051091
PG16 -25338.116362  -1585.423801  -8813.002135   -276.533720
PG17  13017.241921  22050.440822   7490.743191    390.068189
PG18   4555.046984 -25822.561585   4030.576189    346.079998
PG19  17498.645873  20016.596917  -1358.074128    -41.675035
PG20   5135.192577 -17524.028221  19140.626466    524.807219
PG21 -15698.383810  10979.799321  18952.101186     93.536288
PG22 -24367.282896  10219.008576  -1321.974806   -683.936502
PG23   4848.932266 -16253.334395  20406.539272    118.124127
PG24  14873.367056 -14551.503312  16040.027442      2.670677
PG25  11978.167463 -15981.352300 -17623.599356     75.623244
PG26 -19142.391931  -7037.629560 -17202.903917     41.389494
PG27 -21600.784645 -10052.532263  11957.731999    -71.580695
PG28   7873.733172  13711.093370  21878.484175    618.974238
PG29   2020.482337 -17650.198579 -19770.798109   -290.473764
PG30   2313.171489  23472.085951  12038.955203   -381.061092
PG31  -9582.861816 -15543.727656 -19199.257924    -98.627315
PG32 -15239.204245 -21000.075640   6170.801316     17.841937
PJ01 -29478.567768  15499.881598 -21227.979745   -339.648829
PJ02 -30625.089173  28826.814238   7860.718961      1.573932
PJ03 -25007.431500  24664.093895  28441.331807     -0.530789
PR01 -22685.053992  -9552.509124   6672.119205     74.651677
PR02 -21362.486027    416.264968 -13942.407473    466.090859
PR03  -6578.229460   9341.098765 -22770.496036     30.459889
PR04  11817.037284  12660.249751 -18699.530623     73.122205
PR05  23471.648514   9059.714572  -4116.448366     66.117735
PR07   5816.969187  -9634.728226  22922.525346    -42.357138
PR08 -11806.401174 -12783.594229  18712.305683    -57.252340
PR11    709.489045 -14533.791851 -20944.946418      3.635937
PR12 -13776.270859   -937.333213 -21432.758365    203.052238
PR13 -19792.947227  12939.934040  -9592.959033    -50.410629
PR14 -14255.374014  19355.089202   8530.751166     60.751280
PR15   -514.967296  14387.033446  21074.049413    105.540533
PR16  14350.265941     94.716726  21026.734267    -11.011925
PR17  -2189.071364  20507.111954  15049.362099    398.006103
PR18   6153.986495  24704.397246   -969.603514     65.842093
PR19  10708.201006  16714.368162 -16013.557402   -131.051812
PR20   9770.796698  -3787.675447 -23243.895925   -432.834521
PR21   1620.750046 -21150.319296 -14144.015850   -185.942132
PR22  -6540.792075 -24615.800160   2152.329996    -96.607270
PR24 -10006.666357   4755.484055  22999.428435     30.646633
EOF
